{
  "type": "FeatureCollection",
  "generator": "overpass-turbo",
  "copyright": "The data included in this document is from www.openstreetmap.org. The data is made available under ODbL.",
  "timestamp": "2025-09-02T13:36:29Z",
  "features": [
    {
      "type": "Feature",
      "properties": {
        "@id": "node/1172385540",
        "amenity": "cafe",
        "name": "Trattoria Alpina"
      },
      "geometry": {
        "type": "Point",
        "coordinates": [
          11.4646872,
          46.040466
        ]
      },
      "id": "node/1172385540"
    },
    {
      "type": "Feature",
      "properties": {
        "@id": "node/1172385546",
        "addr:city": "Borgo Valsugana",
        "addr:housenumber": "59",
        "addr:postcode": "38051",
        "addr:street": "Via per Olle",
        "amenity": "cafe",
        "phone": "+39 0461754555"
      },
      "geometry": {
        "type": "Point",
        "coordinates": [
          11.4606776,
          46.0430914
        ]
      },
      "id": "node/1172385546"
    },
    {
      "type": "Feature",
      "properties": {
        "@id": "node/1620985279",
        "addr:city": "Borgo Valsugana",
        "addr:country": "IT",
        "addr:housenumber": "7",
        "addr:postcode": "38051",
        "addr:province": "TN",
        "addr:street": "Via Alessandro Spagolla",
        "amenity": "cafe",
        "indoor_seating": "yes",
        "level": "0",
        "name": "Bar Vulcano",
        "operator": "Inacio de Lima Severina",
        "outdoor_seating": "yes",
        "phone": "+39 0461 751162",
        "ref:vatin": "IT02597990221"
      },
      "geometry": {
        "type": "Point",
        "coordinates": [
          11.4565548,
          46.0516722
        ]
      },
      "id": "node/1620985279"
    },
    {
      "type": "Feature",
      "properties": {
        "@id": "node/1620986517",
        "amenity": "cafe",
        "indoor_seating": "yes",
        "name": "Cream Cafe",
        "outdoor_seating": "yes"
      },
      "geometry": {
        "type": "Point",
        "coordinates": [
          11.463852,
          46.0563336
        ]
      },
      "id": "node/1620986517"
    },
    {
      "type": "Feature",
      "properties": {
        "@id": "node/2321200274",
        "addr:city": "Castelnuovo",
        "addr:country": "IT",
        "addr:housenumber": "2",
        "addr:place": "Località Prai da Brenta",
        "addr:postcode": "38050",
        "addr:province": "TN",
        "amenity": "cafe",
        "cuisine": "regional",
        "name": "Bar Red",
        "operator": "Molinari S.A.S.",
        "ref:vatin": "IT00679620229",
        "restaurant": "yes"
      },
      "geometry": {
        "type": "Point",
        "coordinates": [
          11.4841253,
          46.0512472
        ]
      },
      "id": "node/2321200274"
    },
    {
      "type": "Feature",
      "properties": {
        "@id": "node/2321204058",
        "amenity": "cafe"
      },
      "geometry": {
        "type": "Point",
        "coordinates": [
          11.4851193,
          46.050531
        ]
      },
      "id": "node/2321204058"
    },
    {
      "type": "Feature",
      "properties": {
        "@id": "node/3575479541",
        "addr:city": "Borgo Valsugana",
        "addr:country": "IT",
        "addr:housenumber": "9b",
        "addr:postcode": "38051",
        "addr:province": "TN",
        "addr:street": "Via Giuseppe Gozzer",
        "amenity": "cafe",
        "name": "Amodomio",
        "note:it": "Nome bar da aggiornare.",
        "opening_hours": "Mo 06:30-13:30; Tu-Sa 06:30-13:30,16:30-22:30; Su 07:00-13:30,16:30-22:30",
        "operator": "Pavesi Monica",
        "phone": "+39 0461 757333",
        "wheelchair": "yes"
      },
      "geometry": {
        "type": "Point",
        "coordinates": [
          11.4637303,
          46.05123
        ]
      },
      "id": "node/3575479541"
    },
    {
      "type": "Feature",
      "properties": {
        "@id": "node/3840753124",
        "amenity": "cafe",
        "indoor_seating": "yes",
        "name": "Bar Bianco Caffè pasticceria da Ivan",
        "outdoor_seating": "yes"
      },
      "geometry": {
        "type": "Point",
        "coordinates": [
          11.4580873,
          46.0533105
        ]
      },
      "id": "node/3840753124"
    },
    {
      "type": "Feature",
      "properties": {
        "@id": "node/3840753126",
        "addr:city": "Borgo Valsugana",
        "addr:country": "IT",
        "addr:housenumber": "62",
        "addr:postcode": "38051",
        "addr:province": "TN",
        "addr:street": "Corso Ausugum",
        "amenity": "cafe",
        "indoor_seating": "yes",
        "name": "Caffè del Corso",
        "opening_hours": "Mo-Sa 07:00-12:00,16:00-18:00; Su off",
        "outdoor_seating": "yes",
        "phone": "+39 0461 751214",
        "wheelchair": "limited"
      },
      "geometry": {
        "type": "Point",
        "coordinates": [
          11.4586177,
          46.0542299
        ]
      },
      "id": "node/3840753126"
    },
    {
      "type": "Feature",
      "properties": {
        "@id": "node/3852571332",
        "amenity": "school",
        "name": "Sala Studio Universitas - Valeria Solesin e Antonio Megalizzi"
      },
      "geometry": {
        "type": "Point",
        "coordinates": [
          11.4530471,
          46.0524172
        ]
      },
      "id": "node/3852571332"
    },
    {
      "type": "Feature",
      "properties": {
        "@id": "node/3934055421",
        "amenity": "cafe"
      },
      "geometry": {
        "type": "Point",
        "coordinates": [
          11.4631421,
          46.0525857
        ]
      },
      "id": "node/3934055421"
    },
    {
      "type": "Feature",
      "properties": {
        "@id": "node/4214487823",
        "amenity": "cafe",
        "indoor_seating": "yes",
        "level": "1",
        "name": "Risto 3 Fiore di Cardo",
        "outdoor_seating": "no"
      },
      "geometry": {
        "type": "Point",
        "coordinates": [
          11.4738839,
          46.055883
        ]
      },
      "id": "node/4214487823"
    },
    {
      "type": "Feature",
      "properties": {
        "@id": "node/4215202559",
        "addr:city": "Borgo Valsugana",
        "addr:country": "IT",
        "addr:housenumber": "17",
        "addr:postcode": "38051",
        "addr:province": "TN",
        "addr:street": "Piazzale Dante Alighieri",
        "air_conditioning": "yes",
        "amenity": "cafe",
        "changing_table": "no",
        "indoor_seating": "yes",
        "name": "Bar Cusso",
        "opening_hours": "Mo,We,Th 07:00-01:00, Fr,Sa 07:00-02:00, Su 07:30-01:00; Tu,PH off",
        "operator": "Borgogno Maria",
        "outdoor_seating": "yes",
        "phone": "+39 0461 751210",
        "ref:vatin": "IT00582430229",
        "smoking": "outside",
        "toilets": "yes",
        "toilets:wheelchair": "no",
        "wheelchair": "limited"
      },
      "geometry": {
        "type": "Point",
        "coordinates": [
          11.4556096,
          46.0538183
        ]
      },
      "id": "node/4215202559"
    },
    {
      "type": "Feature",
      "properties": {
        "@id": "node/4215202560",
        "addr:city": "Borgo Valsugana",
        "addr:country": "IT",
        "addr:housenumber": "7",
        "addr:postcode": "38051",
        "addr:province": "TN",
        "addr:street": "Piazza Romani",
        "amenity": "cafe",
        "email": "info@caffemilanoborgo.it",
        "indoor_seating": "yes",
        "name": "Bar Milano",
        "opening_hours": "Mo,Tu 07:00-21:00; We 06:30-21:00; Th 07:00-12:00; Fr 08:00-21:00; Sa 07:00-23:00; Su,PH off",
        "operator": "Valerio Adelino & C. SAS",
        "outdoor_seating": "no",
        "payment:credit_cards": "yes",
        "payment:debit_cards": "yes",
        "phone": "+39 0461 752175",
        "ref:vatin": "IT01694550227",
        "smoking": "no",
        "website": "http://caffemilanoborgo.it/",
        "wheelchair": "yes"
      },
      "geometry": {
        "type": "Point",
        "coordinates": [
          11.4557921,
          46.0532218
        ]
      },
      "id": "node/4215202560"
    },
    {
      "type": "Feature",
      "properties": {
        "@id": "node/4215202562",
        "addr:city": "Borgo Valsugana",
        "addr:country": "IT",
        "addr:housenumber": "5",
        "addr:postcode": "38051",
        "addr:province": "TN",
        "addr:street": "Largo Carlo Dordi",
        "amenity": "cafe",
        "check_date": "2024-08-05",
        "indoor_seating": "yes",
        "name": "Caffè Roma",
        "outdoor_seating": "yes",
        "phone": "+39 0461 753375"
      },
      "geometry": {
        "type": "Point",
        "coordinates": [
          11.4564801,
          46.0540487
        ]
      },
      "id": "node/4215202562"
    },
    {
      "type": "Feature",
      "properties": {
        "@id": "node/4596263125",
        "amenity": "cafe",
        "cuisine": "coffee_shop",
        "name": "Road Cafè",
        "outdoor_seating": "yes"
      },
      "geometry": {
        "type": "Point",
        "coordinates": [
          11.4749589,
          46.0489888
        ]
      },
      "id": "node/4596263125"
    },
    {
      "type": "Feature",
      "properties": {
        "@id": "node/4596263127",
        "amenity": "cafe"
      },
      "geometry": {
        "type": "Point",
        "coordinates": [
          11.4755482,
          46.0486434
        ]
      },
      "id": "node/4596263127"
    },
    {
      "type": "Feature",
      "properties": {
        "@id": "node/6923613230",
        "addr:city": "Borgo Valsugana",
        "addr:country": "IT",
        "addr:housenumber": "15a",
        "addr:postcode": "38051",
        "addr:province": "TN",
        "addr:street": "Via Giamaolle",
        "amenity": "school",
        "check_date": "2025-01-17",
        "email": "cfp.borgo@enaip.tn.it",
        "name": "Centro di formazione professionale ENAIP - Borgo Valsugana",
        "operator": "Bailo Sergio",
        "phone": "+39 0461 753037",
        "short_name": "C.F.P. di Borgo Valsugana",
        "website": "https://www.enaiptrentino.it/i_centri/cfp-borgo-valsugana"
      },
      "geometry": {
        "type": "Point",
        "coordinates": [
          11.4578825,
          46.0493998
        ]
      },
      "id": "node/6923613230"
    }
  ]
}